#cP2024  9 19  0  0  0.00000000     289   u+U IGS20 FIT  JPL
## 2332 345600.00000000   300.00000000 60572 0.0000000000000
+   57   E02E03E04E05E06E07E08E09E10E11E12E13E14E15E18E19E21
+        E24E25E26E27E29E30E31E33E34E36G02G03G04G05G06G07G08
+        G09G10G11G12G13G14G15G16G18G19G20G21G22G23G24G25G26
+        G27G28G29G30G31G32  0  0  0  0  0  0  0  0  0  0  0
+          0  0  0  0  0  0  0  0  0  0  0  0  0  0  0  0  0
++         3  3  3  3  3  3  3  3  4  4  4  4  4  4  4  3  3
++         3  3  4  3  3  3  3  4  4  4  3  3  3  3  3  3  3
++         3  3  3  3  3  3  3  3  3  3  3  3  3  3  3  3  3
++         3  3  3  3  3  3  0  0  0  0  0  0  0  0  0  0  0
++         0  0  0  0  0  0  0  0  0  0  0  0  0  0  0  0  0
%c M  cc GPS ccc cccc cccc cccc cccc ccccc ccccc ccccc ccccc
%c cc cc ccc ccc cccc cccc cccc cccc ccccc ccccc ccccc ccccc
%f  1.2500000  1.025000000  0.00000000000  0.000000000000000
%f  0.0000000  0.000000000  0.00000000000  0.000000000000000
%i    0    0    0    0      0      0      0      0         0
%i    0    0    0    0      0      0      0      0         0
/*                                                          
/* JET PROPULSION LABORATORY                                
/*                                                          
/* PCV:igs20_2317 OL/AL:GOT4.8AC NONE     YN ORB:CoN CLK:CoN
*  2024  9 19 20 10  0.00000000
PE02 -16796.522589  23706.303771  -5701.441170    160.580040  6  8  7 205
PE03 -19491.239892  13418.634860 -17785.061962   -141.484283  7  7  7 205
PE04  -2507.002631 -16794.443140  24244.741352    -37.056214  7  8  6 205
PE05 -29498.431489   2220.009596  -1005.300309   4785.658673  7  7  7 205
PE06 -13623.655383 -14734.380232  21741.927258    -27.507843  7  8  7 206
PE07  22068.236804  10520.520003 -16697.394781   -142.945216  8  8  7 206
PE08   1530.162322  16728.508583 -24378.920207   -338.224083  8  8  6 206
PE09 -21980.412473 -10471.795636  16818.036044   -595.836532  7  8  7 206
PE10 -14562.965984 -25630.690079  -2582.658184   -657.758229 10 12  8 208
PE11 -19424.538704 -20910.736925   7842.188059   1602.800936 11 11  9 207
PE12  -8066.719745 -26133.635181 -11328.797327  -1217.139422  9 11  9 207
PE13  19240.598530  21274.346551  -7309.635685    -24.941208  9  9  8 207
PE14  -7870.668785  15296.303720  17386.082276    237.296915 10  8  8 208
PE15   7595.412670  25999.516371  11949.164857   -128.127547  8 10  9 207
PE18  17715.895736 -17486.657383 -19627.438011    566.078995  9  9  8 207
PE19  21209.924223 -12374.419479  16529.258480    648.041287  7  7  6 205
PE21  19937.260566  -7640.381423  20506.211339   -617.765483  7  7  7 205
PE24 -11434.620723 -13665.020449 -23643.453716   -996.707898  8  8  7 206
PE25 -19870.348182   7187.839031 -20720.803100      9.253263  7  7  7 205
PE26  19395.680488   3606.855421 -22065.493598   -264.471453  8  8  8 206
PE27  11503.369556  13502.198614  23703.973205   -456.721911  8  8  7 206
PE29  29462.621454  -2413.896045   1393.401098    -31.437908  7  7  7 206
PE30  -3639.664660  26405.669765  12877.280544   -733.947800  7  8  7 206
PE31   3608.371249 -26402.909911 -12872.914274    -36.432584  9  8  7 206
PE33   8671.973863 -14982.882233 -24002.840463     15.418916  8  8  8 206
PE34  -8282.102964  15418.522139  23872.923207   -135.284714  7  8  7 206
PE36 -19432.779017  -4228.368594  21926.792171   -285.626145  9  8  9 206
PG02 -21134.089905 -10967.797266  12579.558603   -354.600477  8  8  8 188
PG03 -15728.536193    852.252001  21197.506489    543.393311  6  7  6 186
PG04 -26243.961278  -1091.740214   4450.673290    446.738573  6  7  6 186
PG05   8509.560231  15654.547170 -19858.316449   -187.132352  7  8  6 187
PG06    960.391617  20476.442099  16896.053124     19.507786  6  8  7 187
PG07 -15056.891043   4709.182224 -20897.667283    -35.958638  6  7  5 187
PG08 -20930.082289  -7636.136043 -14891.782826    358.034107  7  8  7 187
PG09 -24822.075024   7574.788362  -5889.467880    363.505193  6  7  6 186
PG10  10126.137503 -24346.281217    802.977460   -130.663207  7  7  6 186
PG11  12170.946594  23304.725991   4059.005678   -736.346621  6  7  6 187
PG12  14820.470578   3891.420030  21410.242702   -539.255807  6  7  6 186
PG13  13227.797000  13415.785471 -19044.221895    677.352882  8  8  7 188
PG14 -13031.746389  22789.910907  -3075.059112    499.279274  6  6  6 186
PG15  21658.875636   5514.811925 -14994.216688    206.190092  7  7  7 187
PG16  -3933.935456 -19179.179773 -18074.588838   -176.622459  9  8  6 187
PG18  14167.391477  -5545.859653 -21770.039741   -654.250122  6  7  5 187
PG19  -4006.395509  14850.907818  21454.944636    540.183438  7  6  5 186
PG20   2854.000796  23725.746956 -11681.157246    370.475206  7  8  6 187
PG21 -20917.560815 -15800.122182   7339.873305    101.433786  8  9  8 188
PG22  -8937.211740  24612.659947   5729.123560    -63.450136  6  7  6 186
PG23  15741.911950 -17580.983365 -11933.278705    323.794913  6  6  6 186
PG24  21166.454323  13024.089649   9475.090221   -486.526302  8  8  7 187
PG25  17326.268658  -9656.236707  17197.188381    499.630477  6  6  6 186
PG26   2784.660521 -25205.666843  -7373.919599     75.181026  8  8  7 187
PG27 -10732.997597 -13313.496808 -20718.211394    -33.884789  8  8  7 188
PG28    534.897501 -19560.399922  17946.453064   -417.120806  6  7  6 186
PG29  26167.488605  -3411.113467  -3617.716711   -576.780275  6  7  7 187
PG30  -7361.256377  15194.435648 -20294.212944   -318.197543  6  7  6 187
PG31  -9127.408817 -23215.435512   8312.193443   -224.492928  7  9  7 188
PG32  11286.945423 -14776.390643  19104.408545   -595.551150  6  6  5 186
*  2024  9 19 20 15  0.00000000
PE02 -16694.536469  23550.926654  -6577.192495    160.580943  6  8  7 205
PE03 -20014.806994  13463.703630 -17157.806379   -141.485054  7  7  7 205
PE04  -1778.360156 -16839.235019  24278.129723    -37.058997  7  8  6 205
PE05 -29513.845278   2238.877440   -102.398393   4785.659683  7  7  7 205
PE06 -12963.763945 -14768.657138  22118.419163    -27.509010  7  8  7 206
PE07  21556.499234  10539.385155 -17341.359358   -142.945826  8  8  7 206
PE08    798.253018  16773.692871 -24382.541339   -338.225916  8  8  6 206
PE09 -21464.122083 -10487.546404  17462.813621   -595.840733  7  8  7 206
PE10 -14556.025188 -25525.391088  -3502.541961   -657.758997 10 12  8 208
PE11 -19587.282113 -21071.132847   6959.340773   1602.755207 11 11  9 207
PE12  -7909.711638 -25813.565065 -12143.993485  -1217.144190  9 11  9 207
PE13  19397.192016  21419.255550  -6418.930390    -24.941324  9  9  8 206
PE14  -8698.068207  15162.900856  16924.754840    237.303771 10  8  8 208
PE15   7429.446426  25663.187470  12753.819065   -128.128250  8 10  9 207
PE18  18193.457644 -17590.741988 -19236.541725    566.091856  9  9  8 207
PE19  21695.395230 -12419.265665  15851.670520    648.059388  7  7  7 205
PE21  19647.111589  -7087.893978  20979.266436   -617.766126  7  7  7 205
PE24 -11118.834054 -14298.194711 -23418.009995   -996.714263  8  8  7 206
PE25 -19577.406038   6628.962458 -21180.575765      9.253388  7  7  7 205
PE26  19776.706599   4144.605706 -21628.916158   -264.468173  9  8  8 206
PE27  11189.108328  14138.388003  23482.547717   -456.724825  8  8  7 206
PE29  29490.573336  -2427.243327    495.042569    -31.438749  7  7  7 206
PE30  -3795.078214  26748.364240  12102.392227   -733.959615  7  8  7 206
PE31   3761.657037 -26746.870895 -12096.204393    -36.432958  9  8  7 205
PE33   9061.052640 -14367.877908 -24234.365503     15.418987  8  7  8 206
PE34  -8668.968585  14806.804894  24121.067852   -135.285364  7  8  7 206
PE36 -19814.194140  -4760.467344  21471.528386   -285.627728  9  9  9 206
PG02 -21385.788458 -11330.572476  11786.723514   -354.598279  8  8  8 188
PG03 -15419.671400     89.634246  21441.258598    543.397287  6  7  6 186
PG04 -26065.235256  -1182.063502   5379.143094    446.740701  6  7  6 186
PG05   8224.081607  16333.739552 -19420.753425   -187.132796  7  8  6 187
PG06    547.131979  19972.216736  17512.333657     19.499903  6  8  7 187
PG07 -15542.527871   4038.094790 -20700.267545    -35.957296  6  7  6 187
PG08 -20376.593974  -7782.683754 -15560.546617    358.037950  7  8  7 187
PG09 -25034.921410   7523.808168  -4969.183674    363.510020  6  7  6 186
PG10  10191.778000 -24323.000590   -172.478801   -130.666947  7  7  6 186
PG11  12012.089061  23206.366493   4993.318085   -736.347804  6  7  6 187
PG12  14450.090591   4642.961618  21513.352568   -539.256737  6  7  6 186
PG13  12510.694530  13431.791073 -19510.438521    677.353652  8  8  7 188
PG14 -13070.242710  22621.412303  -4008.397600    499.281814  6  6  6 186
PG15  21142.476647   5733.555151 -15652.894922    206.191435  7  7  7 187
PG16  -3575.262936 -19739.598661 -17513.794615   -176.619410  9  8  6 187
PG18  14645.305252  -4872.157483 -21621.163466   -654.250746  6  7  5 187
PG19  -4832.781699  14844.712013  21277.089308    540.184638  7  6  5 186
PG20   2686.657777  24130.343284 -10873.220943    370.475193  7  8  7 187
PG21 -21040.363395 -16012.018464   6454.210434    101.433630  9  9  8 188
PG22  -9088.712828  24739.896734   4810.557525    -63.451395  6  7  6 186
PG23  15624.529152 -17119.133343 -12736.752382    323.797419  6  6  6 186
PG24  21343.245102  13352.413527   8636.006564   -486.526171  8  8  7 187
PG25  17126.794969  -8992.864639  17745.124767    499.630493  6  6  6 186
PG26   2976.342420 -25418.310695  -6485.994898     75.178424  8  8  7 187
PG27  -9969.973624 -13433.131379 -21011.862049    -33.884795  8  8  7 188
PG28   1005.977914 -19048.159117  18469.314280   -417.124916  6  7  6 186
PG29  26288.418255  -3344.244976  -2671.868100   -576.779480  6  7  7 187
PG30  -7866.801239  14582.424547 -20557.920924   -318.195400  6  7  6 187
PG31  -8849.206800 -22988.488957   9185.848185   -224.492836  7  9  7 187
PG32  11993.706911 -14826.221193  18617.663233   -595.549997  6  6  5 186
EOF
